satname,norad_id,inclination_deg,eccentricity,mean_motion_rev_per_day,perigee_km,apogee_km,l1,l2
STARLINK-1167,45071,53.054,0.0001462,15.06420711,546.1356057544099,548.1605591125135,1 45071U 20006AD  25289.15346872  .00014012  00000+0  95718-3 0  9997,2 45071  53.0540 195.4688 0001462  85.7337 274.3819 15.06420711314956
STARLINK-1168,45072,53.0538,0.0001456,15.06413089,546.1631174197046,548.1797672381108,1 45072U 20006AE  25289.15715627  .00011630  00000+0  79809-3 0  9992,2 45072  53.0538 195.4503 0001456  89.5412 270.5744 15.06413089314954
STARLINK-1172,45074,53.0524,0.0001924,15.063883,545.914973023433,548.5798609470894,1 45074U 20006AG  25289.43360100  .00006482  00000+0  45379-3 0  9991,2 45074  53.0524 194.2113 0001924  81.2628 278.8579 15.06388300314991
STARLINK-1153,45080,53.053,0.0001382,15.06399424,546.2562398812024,548.1704067105611,1 45080U 20006AN  25289.47785034  .00009458  00000+0  65299-3 0  9998,2 45080  53.0530 194.0121 0001382  93.3547 266.7600 15.06399424315007
STARLINK-1151,45081,53.0569,0.0001455,15.06406506,546.1839827431504,548.1992533710045,1 45081U 20006AP  25289.13136584  .00008432  00000+0  58417-3 0  9997,2 45081  53.0569 195.6433 0001455 104.1183 255.9968 15.06406506314951
STARLINK-1190,45083,53.044,0.0006249,15.82452638,319.31925135391884,327.69496616104425,1 45083U 20006AR  25289.66668981  .00193114  00000+0  89142-3 0  9999,2 45083  53.0440 152.4277 0006249 141.7772 286.7931 15.82452638  5999
STARLINK-1173,45084,53.0372,0.0001921,16.00174049,272.65843566520834,275.2141622266636,1 45084U 20006AS  25289.00002315  .00490707  11579-3  93097-3 0  9990,2 45084  53.0372 117.2866 0001921 327.4085 221.9063 16.00174049  6063
STARLINK-1185,45087,53.0534,0.0001348,15.06408548,546.2518262192161,548.1188931273846,1 45087U 20006AV  25289.33335648 -.00033420  00000+0 -22347-2 0  9996,2 45087  53.0534 174.6580 0001348  85.4314  60.8114 15.06408548  5802
STARLINK-1183,45088,53.0562,0.0001634,15.06395837,546.0927129238871,548.3559210022704,1 45088U 20006AW  25289.39490824  .00004779  00000+0  33955-3 0  9992,2 45088  53.0562 174.3846 0001634  87.8403 272.2773 15.06395837315270
STARLINK-1176,45090,53.0428,0.0003912,15.96739857,280.8648370996025,286.0768790877746,1 45090U 20006AY  25289.66668981  .00402203  77015-4  92580-3 0  9994,2 45090  53.0428 112.1494 0003912 320.4424 351.2670 15.96739857  5917
STARLINK-1142,45093,53.0348,0.0003072,15.56421951,395.94070440771156,400.1039767065495,1 45093U 20006BB  25289.58480464  .00111435  00000+0  15341-2 0  9994,2 45093  53.0348 112.3958 0003072 190.6862 169.4084 15.56421951316167
STARLINK-1152,45096,53.0474,0.0009043,15.22689135,491.51544155796455,503.95114056637885,1 45096U 20006BE  25289.04205495  .00015046  00000+0  64976-3 0  9997,2 45096  53.0474 160.0125 0009043 116.8330 243.3592 15.22689135315449
STARLINK-1184,45098,53.0561,0.0001433,15.06390356,546.2487088830167,548.2335222509373,1 45098U 20006BG  25289.40963516 -.00000706  00000+0 -28481-4 0  9995,2 45098  53.0561 174.3189 0001433  78.5122 281.6028 15.06390356315270
STARLINK-1193,45100,53.0545,0.0001284,15.06386024,546.3651724417186,548.1436129513622,1 45100U 20006BJ  25289.40596890  .00008173  00000+0  56716-3 0  9991,2 45100  53.0545 174.3334 0001284  82.4524 277.6611 15.06386024315272
STARLINK-1143,45179,53.0535,0.0007805,15.38135902,446.29120619432433,456.9524597325808,1 45179U 20012B   25289.26055698  .00079556  00000+0  20745-2 0  9999,2 45179  53.0535 302.2267 0007805 344.1109  15.9648 15.38135902313538
STARLINK-1202,45183,53.0554,0.0001402,15.06415692,546.192537510683,548.1343917609665,1 45183U 20012F   25289.40228753  .00011278  00000+0  77446-3 0  9992,2 45183  53.0554 334.3526 0001402  99.1604 260.9544 15.06415692313092
STARLINK-1216,45185,53.0545,0.0001394,15.06399175,546.2486925041594,548.1794803870598,1 45185U 20012H   25289.39491363  .00011220  00000+0  77091-3 0  9994,2 45185  53.0545 334.3829 0001394  75.5653 284.5490 15.06399175313035
STARLINK-1225,45187,53.0547,0.0001251,15.06408432,546.3193573215831,548.0520730649241,1 45187U 20012K   25289.41333348  .00010586  00000+0  72831-3 0  9998,2 45187  53.0547 334.3016 0001251  66.2874 293.8246 15.06408432313085
STARLINK-1230,45189,53.0553,0.000149,15.06389537,546.2117439987096,548.2755074251718,1 45189U 20012M   25289.41702721  .00003149  00000+0  23028-3 0  9996,2 45189  53.0553 334.2869 0001490  92.4267 267.6892 15.06389537310314
STARLINK-1234,45190,53.0528,0.0001464,15.20609048,502.99479076708576,505.0098811646558,1 45190U 20012N   25289.66668981  .01958102  00000+0  79640-1 0  9992,2 45190  53.0528 292.7987 0001464  52.8071 311.3263 15.20609048  5858
STARLINK-1269,45197,53.055,0.0001465,15.06400506,546.1954437850454,548.2245704581328,1 45197U 20012V   25289.42807849  .00004375  00000+0  31242-3 0  9992,2 45197  53.0550 334.2391 0001465 103.3903 256.7250 15.06400506313063
STARLINK-1154,45198,53.054,0.0001572,15.06396453,546.1337625015076,548.3110955059865,1 45198U 20012W   25289.35251572  .00003073  00000+0  22513-3 0  9996,2 45198  53.0540 314.5753 0001572  96.5211 263.5957 15.06396453313302
STARLINK-1199,45201,53.0543,0.0001343,15.06396563,546.2920161422489,548.152167594325,1 45201U 20012Z   25289.36357239  .00003247  00000+0  23677-3 0  9994,2 45201  53.0543 314.5249 0001343  94.4821 265.6322 15.06396563313367
STARLINK-1209,45206,53.0537,0.0001027,15.17088666,513.9369362301286,515.3527136169678,1 45206U 20012AE  25289.66668981  .02041975  00000+0  92972-1 0  9995,2 45206  53.0537 292.9622 0001027  88.1274 172.6495 15.17088666  5764
STARLINK-1210,45207,53.0259,0.0013221,15.52493958,400.47331660598866,418.4210466991144,1 45207U 20012AF  25289.20188234  .00132018  00000+0  20843-2 0  9990,2 45207  53.0259 260.3545 0013221   2.7264 357.3814 15.52493958314111
STARLINK-1231,45212,53.0524,0.000446,15.10964795,530.1738713594486,536.3388342301414,1 45212U 20012AL  25289.36553736  .00029701  00000+0  17698-2 0  9994,2 45212  53.0524 313.4115 0004460 338.2663  21.8138 15.10964795313331
STARLINK-1271,45217,53.0543,0.0001396,15.06392577,546.2675266229307,548.201090292252,1 45217U 20012AR  25289.34883774  .00002969  00000+0  21818-3 0  9992,2 45217  53.0543 314.5902 0001396  94.1462 265.9686 15.06392577313363
STARLINK-1191,45222,53.0547,0.0001286,15.06390667,546.3495588836795,548.1307658898459,1 45222U 20012AW  25289.29168513  .00001192  00000+0  98940-4 0  9997,2 45222  53.0547 294.8466 0001286  83.8241 276.2895 15.06390667313631
STARLINK-1212,45223,53.0542,0.0001368,15.06396108,546.2760970688714,548.170875697946,1 45223U 20012AX  25289.31020925  .00004026  00000+0  28908-3 0  9990,2 45223  53.0542 295.4189 0001368  76.8991 283.2151 15.06396108313630
STARLINK-1215,45225,53.0551,0.0001401,15.06390665,546.2699231752295,548.2104138578488,1 45225U 20012AZ  25289.33224111  .00000827  00000+0  74438-4 0  9992,2 45225  53.0551 294.6634 0001401  94.9526 265.1623 15.06390665313591
STARLINK-1217,45226,53.0344,0.0003114,16.1651838,226.96430570526263,231.07924419030041,1 45226U 20012BA  25289.33309539  .01223709  11068-2  81977-3 0  9992,2 45226  53.0344 228.7299 0003114 200.4607 159.6305 16.16518380314474
STARLINK-1221,45227,53.0674,0.0001579,15.36135537,456.47036082011255,458.6290706849486,1 45227U 20012BB  25289.55372067  .00016633  00000+0  47538-3 0  9994,2 45227  53.0674 229.6382 0001579 295.5193  64.5646 15.36135537314519
STARLINK-1222,45228,53.0546,0.0001414,15.06395303,546.2467072825511,548.2051999258292,1 45228U 20012BC  25289.29907124  .00001942  00000+0  14927-3 0  9997,2 45228  53.0546 294.8126 0001414  83.3043 276.8107 15.06395303313529
STARLINK-1226,45229,53.0553,0.0001511,15.06384645,546.2121919234442,548.305046479567,1 45229U 20012BD  25289.32856556  .00000449  00000+0  49032-4 0  9991,2 45229  53.0553 294.6800 0001511  91.6538 268.4624 15.06384645313533
STARLINK-1227,45230,53.0547,0.0001406,15.06386578,546.2789849495139,548.2264045316751,1 45230U 20012BE  25289.32487659  .00000867  00000+0  77128-4 0  9998,2 45230  53.0547 294.6970 0001406  89.9356 270.1794 15.06386578313655
STARLINK-1246,45235,53.0551,0.000135,15.06407462,546.2537691095176,548.1236070452987,1 45235U 20012BK  25289.40596176  .00010983  00000+0  75493-3 0  9999,2 45235  53.0551 334.3332 0001350 103.4815 256.6324 15.06407462313114
STARLINK-1270,45237,53.0547,0.0001404,15.06394213,546.2569728888548,548.2016157442986,1 45237U 20012BM  25289.34329539  .00001759  00000+0  13699-3 0  9992,2 45237  53.0547 294.6141 0001404  98.3286 261.7862 15.06394213313642
STARLINK-1279,45360,53.054,0.0001208,15.1722415,513.4018825312678,515.0670794810785,1 45360U 20019A   25289.66668981  .02137281  00000+0  96521-1 0  9993,2 45360  53.0540  62.9577 0001208  72.5920 213.8575 15.17224150  5856
STARLINK-1301,45361,53.0538,0.0001487,15.18914286,508.09651472426685,510.14478514935854,1 45361U 20019B   25289.66668981  .02065570  00000+0  87719-1 0  9994,2 45361  53.0538  72.8900 0001487  83.3769 302.6476 15.18914286  5803
STARLINK-1306,45362,53.048,0.0005828,15.64213165,371.566612769303,379.4386551266334,1 45362U 20019C   25289.66668981  .00143515  00000+0  14587-2 0  9993,2 45362  53.0480  66.8841 0005828 208.2639 180.8009 15.64213165  6004
STARLINK-1262,45366,53.0539,0.0001393,15.06366721,546.3488398956388,548.2782704203055,1 45366U 20019G   25289.58659652 -.00003169  00000+0 -19415-3 0  9991,2 45366  53.0539  93.5188 0001393  73.7670 286.3472 15.06366721308012
STARLINK-1273,45367,53.0535,0.0001294,15.06389292,546.348232260315,548.1405209605819,1 45367U 20019H   25289.60868781  .00000649  00000+0  62471-4 0  9999,2 45367  53.0535  93.4220 0001294  83.3874 276.7262 15.06389292308016
STARLINK-1276,45368,53.054,0.000151,15.06389605,546.1976848563172,548.2891497423425,1 45368U 20019J   25289.57919322 -.00000180  00000+0  68122-5 0  9995,2 45368  53.0540  93.5556 0001510  88.6011 271.5151 15.06389605308016
